#aV2008 10  5  0  0   .00000000      96 DD+AD WGS84 FIT  NGA
## 1500       .00000000   900.00000000 54744  .0000000000000
+   32     1  2  3  4  5  6  7  8  9 10 11 12 13 14 15 16 17
+         18 19 20 21 22 23 24 25 26 27 28 29 30 31 32  0  0
+          0  0  0  0  0  0  0  0  0  0  0  0  0  0  0  0  0
+          0  0  0  0  0  0  0  0  0  0  0  0  0  0  0  0  0
+          0  0  0  0  0  0  0  0  0  0  0  0  0  0  0  0  0
++         0  0  0  0  0  0  0  0  0  0  0  0  0  0  0  0  0
++         0  0  0  0  0  0  0  0  0  0  0  0  0  0  0  0  0
++         0  0  0  0  0  0  0  0  0  0  0  0  0  0  0  0  0
++         0  0  0  0  0  0  0  0  0  0  0  0  0  0  0  0  0
++         0  0  0  0  0  0  0  0  0  0  0  0  0  0  0  0  0
%c cc cc ccc ccc cccc cccc cccc cccc ccccc ccccc ccccc ccccc
%c cc cc ccc ccc cccc cccc cccc cccc ccccc ccccc ccccc ccccc
%f  0.0000000  0.000000000  0.00000000000  0.000000000000000
%f  0.0000000  0.000000000  0.00000000000  0.000000000000000
%i    0    0    0    0      0      0      0      0         0
%i    0    0    0    0      0      0      0      0         0
/*      NGA, ST. LOUIS,MO.                                  
/*   EPHEMERIS COMPUTED FROM  3 DAYS OF DATA                
/* CCCCCCCCCCCCCCCCCCCCCCCCCCCCCCCCCCCCCCCCCCCCCCCCCCCCCCCCC
/* CCCCCCCCCCCCCCCCCCCCCCCCCCCCCCCCCCCCCCCCCCCCCCCCCCCCCCCCC
*  2008 10  5 10 15   .00000000                                                 
P  1  -2995.148676 -14713.681796  22144.033967      2.322057                    
V  1  27429.815686   1587.362232   4725.988147       .025914                    
P  2  13976.094271  22821.527082   -680.493627    182.420834                    
V  2  -2286.243833   2150.241709  31093.993738      -.027540                    
P  3 -15711.707148 -12056.731757 -18140.215819    292.635923                    
V  3  22149.658394  -4145.710785 -16332.636087       .052977                    
P  4   3418.974684  23371.340619  11659.172427   -191.297382                    
V  4 -10185.490162 -11651.146429  26466.709911      -.114503                    
P  5  17731.882609  -6934.186594  18173.511875   -218.664129                    
V  5  -8256.412751  22380.847411  16459.537185      -.789310                    
P  6 -10749.822593 -14089.070268 -19597.455661    161.864770                    
V  6  25312.778262  -2449.122944 -12006.672554      -.035217                    
P  7 -13167.482945   7498.360333 -21840.958203     20.687152                    
V  7 -13788.593186 -23973.736954    -17.108324       .015280                    
P  8  -4418.840917  18454.218471 -18440.000665   -172.780605                    
V  8 -11717.725340 -20286.956547 -18046.628346      -.014294                    
P  9  18606.934468   9612.349065  15765.896777     18.258608                    
V  9   9642.933479  18894.702656 -21899.137524       .019176                    
P 10   6806.466108  15868.603115 -20228.490640     -5.657305                    
V 10 -14372.751643  21063.477946  12091.193036      -.004132                    
P 11 -21064.740726  -5202.056717  15359.108226     18.541221                    
V 11 -10751.794927 -17067.975059 -19951.688941      -.007431                    
P 12  16722.871256   -168.241322  20687.040138   -347.939871                    
V 12 -12418.920668  22986.400011  10354.335548       .018390                    
P 13 -23440.668285   5932.048649 -11100.905206    273.222574                    
V 13 -13774.895113  -2202.449275  28206.363057       .011716                    
P 14   6060.858320 -14101.192272  21772.202274   -211.353222                    
V 14  27283.539136   1427.396269  -6816.627280       .047739                    
P 15  23189.878815   7313.713454 -10682.129525   -188.824780                    
V 15 -13582.925599   2660.307620 -27570.808173      -.064221                    
P 16  -1587.842282 -20118.350728 -17099.100952    103.216536                    
V 16  12906.909799 -17775.750388  19852.917414      -.021489                    
P 17  -7059.908462  14610.321848  21036.941620     39.232171                    
V 17 -26636.434809  -1275.119852  -8240.594184       .001985                    
P 18  17447.069507 -18471.204560  -6847.313415   -126.725773                    
V 18  -1885.760743   9529.490025 -29991.697857       .040106                    
P 19 -23636.805254  -8210.413677  -9147.285921     35.644349                    
V 19  11809.581059  -1629.488396 -28618.675190       .000615                    
P 20 -18035.795238   4371.354922  18876.500840    102.760148                    
V 20  10371.364148 -22000.800140  14950.852209      -.010537                    
P 21  10591.070060 -12396.188762 -20654.882024     47.942559                    
V 21  13851.770973  23117.689631  -7315.261331      -.015131                    
P 22  10534.528643 -23782.598802   5369.967181    210.524659                    
V 22   6354.395132  -3828.094609 -30405.215565      -.001366                    
P 23 -26690.918939    444.613638   -958.269627    375.621090                    
V 23  -1121.933829  -2260.772988  31777.121578       .013473                    
P 24  17114.525235   2366.388703 -19940.822270    130.706891                    
V 24  10473.947340  23587.727149  11968.159020       .030604                    
P 25 -16622.044624    763.162617 -20306.144829    -94.200534                    
V 25 -14500.574973 -22343.866250  11012.480932       .388865                    
P 26  19550.812466  10928.687412 -15178.564691    335.088791                    
V 26 -18142.551626   -138.536436 -23759.472974       .051650                    
P 27 -10354.714580  10741.788860 -21289.611891    222.759536                    
V 27 -16050.011186 -23723.276060  -4149.069375       .030840                    
P 28 -11231.208087  23568.460043   4149.198568    -22.944529                    
V 28  -5016.131019   2572.654159 -31472.043954      -.002495                    
P 29  24950.767891  -4702.303956  -7629.154576    -35.526868                    
V 29   9770.804805   2966.226509  29736.998596       .012271                    
P 30  17824.884908 -15164.900455  12117.152741    100.294241                    
V 30  -5011.429263  15457.050633  26039.140609       .021162                    
P 31  -6300.989401 -23994.737725   9540.029190    -30.560374                    
V 31   7933.768736   9095.983062  28837.200236      -.023354                    
P 32 -15120.523843  -4578.531704  21758.385904    316.530200                    
V 32  14864.157017 -22091.805869   5988.362582      -.002023                    
EOF
